[{"OBJECT_NAME":"STARLINK-34566","OBJECT_ID":"2025-147L","EPOCH":"2025-11-22T10:40:35.058144","MEAN_MOTION":15.30201697,"ECCENTRICITY":0.0001126,"INCLINATION":53.1577,"RA_OF_ASC_NODE":20.7846,"ARG_OF_PERICENTER":94.7122,"MEAN_ANOMALY":265.4008,"EPHEMERIS_TYPE":0,"CLASSIFICATION_TYPE":"U","NORAD_CAT_ID":64765,"ELEMENT_SET_NO":999,"REV_AT_EPOCH":2233,"BSTAR":0.00092761,"MEAN_MOTION_DOT":0.00027216,"MEAN_MOTION_DDOT":0},{"OBJECT_NAME":"STARLINK-34645","OBJECT_ID":"2025-147M","EPOCH":"2025-11-22T08:33:15.818112","MEAN_MOTION":15.3020837,"ECCENTRICITY":0.0001206,"INCLINATION":53.161,"RA_OF_ASC_NODE":21.6476,"ARG_OF_PERICENTER":92.4488,"MEAN_ANOMALY":267.6651,"EPHEMERIS_TYPE":0,"CLASSIFICATION_TYPE":"U","NORAD_CAT_ID":64766,"ELEMENT_SET_NO":999,"REV_AT_EPOCH":2231,"BSTAR":0.0010181,"MEAN_MOTION_DOT":0.00029922,"MEAN_MOTION_DDOT":0},{"OBJECT_NAME":"STARLINK-34639","OBJECT_ID":"2025-147N","EPOCH":"2025-11-22T09:05:00.778272","MEAN_MOTION":15.30187754,"ECCENTRICITY":0.0001149,"INCLINATION":53.1584,"RA_OF_ASC_NODE":21.0802,"ARG_OF_PERICENTER":100.4905,"MEAN_ANOMALY":259.6225,"EPHEMERIS_TYPE":0,"CLASSIFICATION_TYPE":"U","NORAD_CAT_ID":64767,"ELEMENT_SET_NO":999,"REV_AT_EPOCH":2227,"BSTAR":0.0018097,"MEAN_MOTION_DOT":0.00053607,"MEAN_MOTION_DDOT":0},{"OBJECT_NAME":"STARLINK-34609","OBJECT_ID":"2025-147P","EPOCH":"2025-11-22T09:22:56.313120","MEAN_MOTION":15.39617947,"ECCENTRICITY":0.0001359,"INCLINATION":53.1605,"RA_OF_ASC_NODE":14.7738,"ARG_OF_PERICENTER":111.2655,"MEAN_ANOMALY":248.8495,"EPHEMERIS_TYPE":0,"CLASSIFICATION_TYPE":"U","NORAD_CAT_ID":64768,"ELEMENT_SET_NO":999,"REV_AT_EPOCH":2241,"BSTAR":0.0011555,"MEAN_MOTION_DOT":0.00046097,"MEAN_MOTION_DDOT":0},{"OBJECT_NAME":"STARLINK-34246","OBJECT_ID":"2025-147Q","EPOCH":"2025-11-22T09:08:02.988096","MEAN_MOTION":15.3018661,"ECCENTRICITY":0.0001494,"INCLINATION":53.1583,"RA_OF_ASC_NODE":21.0969,"ARG_OF_PERICENTER":97.1517,"MEAN_ANOMALY":262.9654,"EPHEMERIS_TYPE":0,"CLASSIFICATION_TYPE":"U","NORAD_CAT_ID":64769,"ELEMENT_SET_NO":999,"REV_AT_EPOCH":2232,"BSTAR":0.00062265,"MEAN_MOTION_DOT":0.00018119,"MEAN_MOTION_DDOT":0},{"OBJECT_NAME":"STARLINK-34618","OBJECT_ID":"2025-147R","EPOCH":"2025-11-22T10:46:39.743040","MEAN_MOTION":15.30183883,"ECCENTRICITY":0.0001162,"INCLINATION":53.1588,"RA_OF_ASC_NODE":20.815,"ARG_OF_PERICENTER":99.2438,"MEAN_ANOMALY":260.8694,"EPHEMERIS_TYPE":0,"CLASSIFICATION_TYPE":"U","NORAD_CAT_ID":64770,"ELEMENT_SET_NO":999,"REV_AT_EPOCH":2226,"BSTAR":0.0007283,"MEAN_MOTION_DOT":0.00021262,"MEAN_MOTION_DDOT":0},{"OBJECT_NAME":"STARLINK-34541","OBJECT_ID":"2025-147S","EPOCH":"2025-11-22T08:43:44.283072","MEAN_MOTION":15.30208461,"ECCENTRICITY":0.00016,"INCLINATION":53.1598,"RA_OF_ASC_NODE":20.992,"ARG_OF_PERICENTER":120.8864,"MEAN_ANOMALY":239.2294,"EPHEMERIS_TYPE":0,"CLASSIFICATION_TYPE":"U","NORAD_CAT_ID":64771,"ELEMENT_SET_NO":999,"REV_AT_EPOCH":2225,"BSTAR":0.0010309,"MEAN_MOTION_DOT":0.00030306,"MEAN_MOTION_DDOT":0},{"OBJECT_NAME":"STARLINK-34652","OBJECT_ID":"2025-147T","EPOCH":"2025-11-22T08:42:12.926304","MEAN_MOTION":15.30230805,"ECCENTRICITY":0.0001983,"INCLINATION":53.1596,"RA_OF_ASC_NODE":20.984,"ARG_OF_PERICENTER":135.1515,"MEAN_ANOMALY":224.9647,"EPHEMERIS_TYPE":0,"CLASSIFICATION_TYPE":"U","NORAD_CAT_ID":64772,"ELEMENT_SET_NO":999,"REV_AT_EPOCH":2232,"BSTAR":0.0017896,"MEAN_MOTION_DOT":0.00053076,"MEAN_MOTION_DDOT":0},{"OBJECT_NAME":"STARLINK-34612","OBJECT_ID":"2025-147U","EPOCH":"2025-11-22T08:49:48.347616","MEAN_MOTION":15.3022529,"ECCENTRICITY":0.0004593,"INCLINATION":53.1591,"RA_OF_ASC_NODE":21.0171,"ARG_OF_PERICENTER":157.7371,"MEAN_ANOMALY":202.383,"EPHEMERIS_TYPE":0,"CLASSIFICATION_TYPE":"U","NORAD_CAT_ID":64773,"ELEMENT_SET_NO":999,"REV_AT_EPOCH":2232,"BSTAR":0.0015405,"MEAN_MOTION_DOT":0.00045591,"MEAN_MOTION_DDOT":0},{"OBJECT_NAME":"STARLINK-34621","OBJECT_ID":"2025-147V","EPOCH":"2025-11-22T08:24:08.537184","MEAN_MOTION":15.30200534,"ECCENTRICITY":0.0001355,"INCLINATION":53.1597,"RA_OF_ASC_NODE":21.6075,"ARG_OF_PERICENTER":121.5288,"MEAN_ANOMALY":238.5846,"EPHEMERIS_TYPE":0,"CLASSIFICATION_TYPE":"U","NORAD_CAT_ID":64774,"ELEMENT_SET_NO":999,"REV_AT_EPOCH":2224,"BSTAR":0.00096366,"MEAN_MOTION_DOT":0.00028291,"MEAN_MOTION_DDOT":0},{"OBJECT_NAME":"STARLINK-34657","OBJECT_ID":"2025-147W","EPOCH":"2025-11-22T08:10:28.288416","MEAN_MOTION":15.30221112,"ECCENTRICITY":0.0001562,"INCLINATION":53.1608,"RA_OF_ASC_NODE":21.552,"ARG_OF_PERICENTER":100.2924,"MEAN_ANOMALY":259.8253,"EPHEMERIS_TYPE":0,"CLASSIFICATION_TYPE":"U","NORAD_CAT_ID":64775,"ELEMENT_SET_NO":999,"REV_AT_EPOCH":2231,"BSTAR":0.0015528,"MEAN_MOTION_DOT":0.00045946,"MEAN_MOTION_DDOT":0},{"OBJECT_NAME":"STARLINK-34637","OBJECT_ID":"2025-147X","EPOCH":"2025-11-22T11:09:27.497376","MEAN_MOTION":15.30191294,"ECCENTRICITY":0.0001337,"INCLINATION":53.1597,"RA_OF_ASC_NODE":20.9016,"ARG_OF_PERICENTER":99.9172,"MEAN_ANOMALY":260.1979,"EPHEMERIS_TYPE":0,"CLASSIFICATION_TYPE":"U","NORAD_CAT_ID":64776,"ELEMENT_SET_NO":999,"REV_AT_EPOCH":2226,"BSTAR":0.0012067,"MEAN_MOTION_DOT":0.00035542,"MEAN_MOTION_DDOT":0},{"OBJECT_NAME":"STARLINK-34547","OBJECT_ID":"2025-147Y","EPOCH":"2025-11-22T10:54:15.721632","MEAN_MOTION":15.30194086,"ECCENTRICITY":0.0001157,"INCLINATION":53.1584,"RA_OF_ASC_NODE":20.8418,"ARG_OF_PERICENTER":80.3142,"MEAN_ANOMALY":279.799,"EPHEMERIS_TYPE":0,"CLASSIFICATION_TYPE":"U","NORAD_CAT_ID":64777,"ELEMENT_SET_NO":999,"REV_AT_EPOCH":2227,"BSTAR":0.0011071,"MEAN_MOTION_DOT":0.00032568,"MEAN_MOTION_DDOT":0},{"OBJECT_NAME":"STARLINK-34537","OBJECT_ID":"2025-147Z","EPOCH":"2025-11-22T09:52:24.509856","MEAN_MOTION":15.39619335,"ECCENTRICITY":0.0001431,"INCLINATION":53.1597,"RA_OF_ASC_NODE":1.8015,"ARG_OF_PERICENTER":107.3158,"MEAN_ANOMALY":252.8003,"EPHEMERIS_TYPE":0,"CLASSIFICATION_TYPE":"U","NORAD_CAT_ID":64778,"ELEMENT_SET_NO":999,"REV_AT_EPOCH":2263,"BSTAR":0.0011162,"MEAN_MOTION_DOT":0.00044509,"MEAN_MOTION_DDOT":0},{"OBJECT_NAME":"STARLINK-34585","OBJECT_ID":"2025-147AA","EPOCH":"2025-11-22T09:01:58.258272","MEAN_MOTION":15.30183809,"ECCENTRICITY":0.0001244,"INCLINATION":53.1584,"RA_OF_ASC_NODE":21.0669,"ARG_OF_PERICENTER":99.4584,"MEAN_ANOMALY":260.6557,"EPHEMERIS_TYPE":0,"CLASSIFICATION_TYPE":"U","NORAD_CAT_ID":64779,"ELEMENT_SET_NO":999,"REV_AT_EPOCH":2227,"BSTAR":0.00081014,"MEAN_MOTION_DOT":0.00023699,"MEAN_MOTION_DDOT":0},{"OBJECT_NAME":"STARLINK-34491","OBJECT_ID":"2025-147AB","EPOCH":"2025-11-22T08:52:51.182976","MEAN_MOTION":15.30214132,"ECCENTRICITY":0.0001657,"INCLINATION":53.1595,"RA_OF_ASC_NODE":21.0252,"ARG_OF_PERICENTER":135.0679,"MEAN_ANOMALY":225.0456,"EPHEMERIS_TYPE":0,"CLASSIFICATION_TYPE":"U","NORAD_CAT_ID":64780,"ELEMENT_SET_NO":999,"REV_AT_EPOCH":2232,"BSTAR":0.0013038,"MEAN_MOTION_DOT":0.00038473,"MEAN_MOTION_DDOT":0},{"OBJECT_NAME":"STARLINK-34582","OBJECT_ID":"2025-147AC","EPOCH":"2025-11-22T08:54:22.080960","MEAN_MOTION":15.30231675,"ECCENTRICITY":0.0003099,"INCLINATION":53.1596,"RA_OF_ASC_NODE":21.0308,"ARG_OF_PERICENTER":154.8764,"MEAN_ANOMALY":205.2388,"EPHEMERIS_TYPE":0,"CLASSIFICATION_TYPE":"U","NORAD_CAT_ID":64781,"ELEMENT_SET_NO":999,"REV_AT_EPOCH":2225,"BSTAR":0.0019134,"MEAN_MOTION_DOT":0.00056804,"MEAN_MOTION_DDOT":0},{"OBJECT_NAME":"STARLINK-34482","OBJECT_ID":"2025-147AD","EPOCH":"2025-11-22T09:03:29.419776","MEAN_MOTION":15.30187191,"ECCENTRICITY":0.0001185,"INCLINATION":53.1584,"RA_OF_ASC_NODE":21.0679,"ARG_OF_PERICENTER":99.4381,"MEAN_ANOMALY":260.6754,"EPHEMERIS_TYPE":0,"CLASSIFICATION_TYPE":"U","NORAD_CAT_ID":64782,"ELEMENT_SET_NO":999,"REV_AT_EPOCH":2236,"BSTAR":0.0011567,"MEAN_MOTION_DOT":0.00034041,"MEAN_MOTION_DDOT":0},{"OBJECT_NAME":"STARLINK-34629","OBJECT_ID":"2025-150A","EPOCH":"2025-11-22T08:50:05.369280","MEAN_MOTION":15.42757507,"ECCENTRICITY":0.000331,"INCLINATION":70.0005,"RA_OF_ASC_NODE":48.9577,"ARG_OF_PERICENTER":252.0624,"MEAN_ANOMALY":108.0197,"EPHEMERIS_TYPE":0,"CLASSIFICATION_TYPE":"U","NORAD_CAT_ID":64790,"ELEMENT_SET_NO":999,"REV_AT_EPOCH":2034,"BSTAR":0.00199,"MEAN_MOTION_DOT":0.00088134,"MEAN_MOTION_DDOT":0},{"OBJECT_NAME":"STARLINK-34697","OBJECT_ID":"2025-150B","EPOCH":"2025-11-22T09:36:46.355328","MEAN_MOTION":15.42722882,"ECCENTRICITY":0.0002777,"INCLINATION":70.0007,"RA_OF_ASC_NODE":48.6616,"ARG_OF_PERICENTER":263.4381,"MEAN_ANOMALY":96.6485,"EPHEMERIS_TYPE":0,"CLASSIFICATION_TYPE":"U","NORAD_CAT_ID":64791,"ELEMENT_SET_NO":999,"REV_AT_EPOCH":2035,"BSTAR":0.0026279,"MEAN_MOTION_DOT":0.00116725,"MEAN_MOTION_DDOT":0},{"OBJECT_NAME":"STARLINK-34632","OBJECT_ID":"2025-150C","EPOCH":"2025-11-22T12:00:02.998944","MEAN_MOTION":15.2298246,"ECCENTRICITY":0.000313,"INCLINATION":70.0001,"RA_OF_ASC_NODE":45.0789,"ARG_OF_PERICENTER":271.1012,"MEAN_ANOMALY":275.4313,"EPHEMERIS_TYPE":0,"CLASSIFICATION_TYPE":"U","NORAD_CAT_ID":64792,"ELEMENT_SET_NO":999,"REV_AT_EPOCH":589,"BSTAR":0.00083029,"MEAN_MOTION_DOT":0.00019499,"MEAN_MOTION_DDOT":0},{"OBJECT_NAME":"STARLINK-34693","OBJECT_ID":"2025-150D","EPOCH":"2025-11-22T09:13:25.738752","MEAN_MOTION":15.4271089,"ECCENTRICITY":0.0003373,"INCLINATION":69.9992,"RA_OF_ASC_NODE":48.6037,"ARG_OF_PERICENTER":260.1378,"MEAN_ANOMALY":99.9424,"EPHEMERIS_TYPE":0,"CLASSIFICATION_TYPE":"U","NORAD_CAT_ID":64793,"ELEMENT_SET_NO":999,"REV_AT_EPOCH":2035,"BSTAR":0.0012892,"MEAN_MOTION_DOT":0.00056722,"MEAN_MOTION_DDOT":0},{"OBJECT_NAME":"STARLINK-34666","OBJECT_ID":"2025-150E","EPOCH":"2025-11-22T08:38:24.165024","MEAN_MOTION":15.42773218,"ECCENTRICITY":0.0003543,"INCLINATION":69.9993,"RA_OF_ASC_NODE":48.9294,"ARG_OF_PERICENTER":251.0363,"MEAN_ANOMALY":109.0435,"EPHEMERIS_TYPE":0,"CLASSIFICATION_TYPE":"U","NORAD_CAT_ID":64794,"ELEMENT_SET_NO":999,"REV_AT_EPOCH":2034,"BSTAR":0.0018069,"MEAN_MOTION_DOT":0.00079971,"MEAN_MOTION_DDOT":0}]
